country,name,address,city,state,zipcode,phonenumber,nationalID
Australia,Michael O'Hea,23 Rimbanda Road,REDDESTONE,NSW,2370,(02) 6739 9427,
Australia,Marcus Emma,24 Purcell Place,CHAELUNDI,NSW,2460,(02) 6781 0847,
Australia,Zac Kiernan,63 Elizabeth Street,MONKLAND,QLD,4570,(07) 5378 8851,
Australia,Dean Macintyre,58 Harris Street,GOBUR,VIC,3719,(03) 5308 3012,
Australia,Ryder Michael,42 Magnolia Drive,HURSTVILLE WESTFIELD,NSW,2220,(02) 6270 7222,
Australia,Levi Hogarth,93 Auricht Road,PENOLA,SA,5277,(08) 8710 1706,
Australia,Angus Corbett,16 Hodgson St,WARWICK DC,QLD,4370,(07) 4532 0013,
Australia,Callum Calder,12 Roseda-Tinamba Road,HEDLEY,VIC,3967,(03) 5397 9279,
Australia,Isaac Hinkler,58 Savages Road,LOGAN CITY DC,QLD,4114,(07) 3816 3996,
Australia,Koby Edmondstone,26 Bellion Drive,BIDDELIA,WA,6260,(08) 9003 1370,
Australia,Ryder Blacklow,70 Faunce Crescent,GRIFFITH DC,NSW,2680,(02) 6185 3359,
Australia,Alex McGrath,38 Sunnyside Road,PYAP WEST,SA,5333,(08) 8715 3014,
Australia,Joshua Hely,8 Ghost Hill Road,EAST KURRAJONG,NSW,2758,(02) 4706 2975,
Australia,Ali Kaylock,86 Lowe Street,DALWOGAN,QLD,4415,(07) 4577 5731,
Australia,Will Lalor,83 Wharf St,CALGA,NSW,2250,(02) 9632 1695,
Australia,Hudson Hale,82 Sunraysia Road,CORINDHAP,VIC,3352,(03) 5390 8031,
Australia,Hunter Upton,61 Treasure Island Avenue,SOUTH MACLEAN,QLD,4280,(07) 5673 6288,
Australia,Jaxon Sweet,17 Cofton Close,LEIGH,NSW,2453,(02) 6715 5587,
Australia,Hunter Gramp,74 Campbells River Road,KERRIGUNDI,NSW,2835,(02) 4084 7735,
Australia,Jeremy Waller,23 Tennyson Road,CAMPSIE,NSW,2194,(02) 6217 8447,
Australia,Dean Soubeiran,8 Devon Street,WEST BEACH,SA,5024,(08) 8209 5163,
Australia,Marcus Cathcart,59 Anderson Street,WINDSOR,QLD,4030,(07) 3090 4130,
Australia,Oscar Pearse,90 Lane Street,BULLEEN,VIC,3105,(03) 9025 6800,
Australia,Max Del Fabbro,1 Tanner Street,ALI CURUNG,NT,872,(08) 8269 7784,
Australia,Darcy Greig,84 McDowall Street,SUNSHINE PLAZA,QLD,4558,(07) 5371 1695,
Australia,Ethan Nanya,45 Parkes Road,WILLIAMSTOWN NORTH,VIC,3016,(03) 9673 8346,
Australia,Matthew Piper,47 Devon Street,RICHMOND,SA,5033,(08) 8216 2081,
Australia,Max Ah Ket,85 Sale Street,LUCKNOW,NSW,2800,(02) 4080 7755,
Australia,Beau Sheridan,11 Sale-Heyfield Road,TOOTGAROOK,VIC,3941,(03) 9909 4026,
Australia,Bailey Stodart,20 Shannon Court,YUNTA,SA,5440,(08) 8762 0551,
Australia,Aidan Grasby,45 Aquatic Road,LANSDOWNE,NSW,2430,(02) 4974 3005,
Australia,George Lang,10 Barker Street,SOUTH DATATINE,WA,6317,(08) 9042 2648,
Australia,Timothy Connell,58 Grey Street,YALARDY,WA,6701,(08) 9083 4271,
Australia,Anthony Annand,5 Tennyson Road,CECIL PARK,NSW,2178,(02) 4672 9405,
Australia,Noah Winter-Irving,15 Rockhampton Qld,MORINISH,QLD,4702,(07) 4946 3070,
Australia,Harrison Sear,90 Moruya Road,JERRABATTCULLA,NSW,2622,(02) 6136 6107,
Australia,Dean Fielder,20 Corny Court,NADIA,SA,5690,(08) 8727 7045,
Australia,David Legge,73 Carolina Park Road,BLACKWALL,NSW,2256,(02) 9148 9812,
Australia,Logan Lanigan,44 Kaesler Road,KAROONDA,SA,5307,(08) 8221 5506,
Australia,Jamie Lumsdaine,40 Edgewater Close,COMBERTON,NSW,2540,(02) 4005 6868,
Australia,Michael Skene,66 Isaac Road,LAKE ST CLAIR,TAS,7140,(03) 6209 7681,
Australia,Ali Brockman,95 Darwinia Loop,EIGHTY MILE BEACH,WA,6725,(08) 9034 5358,
Australia,Mason Facy,52 Boughtman Street,WAVERLEY GARDENS,VIC,3170,(03) 9415 9484,
Australia,Tyler Threlfall,99 Fernleigh Ave,GIRILAMBONE,NSW,2831,(02) 4055 3123,
Australia,Ryan Lewers,74 Raglan Street,CRAWFORD,QLD,4610,(07) 4587 0561,
Australia,Charlie Makinson,82 Hart Street,ABERDEEN,NSW,2336,(02) 4967 3748,
Australia,Ethan Whyte,79 Cornish Street,LAVERTON RAAF,VIC,3027,(03) 8761 6287,
Australia,Alexander Degotardi,93 Florabunda Lane,CAMDEN SOUTH,NSW,2570,(02) 4692 0189,
Australia,Edward Hopwood,12 Gaggin Street,HINTON,NSW,2321,(02) 4985 9422,
Australia,Jonathan Speight,22 Wigley Street,SEACOMBE HEIGHTS,SA,5047,(08) 8314 9590,
Australia,Alex Goldfinch,63 Treasure Island Avenue,COOLANGATTA,QLD,4225,(07) 5631 8736,
Australia,Elijah Anderson,86 Cherokee Road,DRUMMOND,VIC,3461,(03) 5363 0634,
Australia,Jamie Sexton,74 Kooljak Rd,YALYALUP,WA,6280,(08) 9024 1079,
Australia,Jamie Latham,60 Passage Avenue,CARRINGTON,QLD,4883,(07) 4007 6584,
Australia,Joshua Dickson,29 Spring Creek Road,HALLORA,VIC,3818,(03) 5336 6838,
Australia,Declan Watling,34 Spring Creek Road,BRAVINGTON,VIC,3821,(03) 5327 3133,
Australia,Jake Farncomb,90 Carnegie Avenue,DARTMOOR,WA,6532,(08) 9031 6024,
Australia,Jai Kinnear,47 Daly Terrace,ASHFIELD,WA,6054,(08) 8349 2710,
Australia,Ashton Curry,86 Shell Road,BEECH FOREST,VIC,3237,(03) 5335 1695,
Australia,Nathan Jackey,79 Old Gayndah Road,GRANVILLE,QLD,4650,(07) 3311 1765,
Australia,Patrick Abbott,75 Yarra Street,KINGSTON,VIC,3364,(03) 5317 9198,
Australia,Lucas Clunies,55 Albacore Crescent,BONG BONG,NSW,2576,(02) 4654 1263,
Australia,Brayden Norman,8 Wilson Street,BOLTON,VIC,3546,(03) 5331 4739,
Australia,Brodie Higinbotham,23 Sullivan Court,AREEGRA,VIC,3480,(03) 5354 2195,
Australia,Noah Keating,22 Gaggin Street,CELLS RIVER,NSW,2324,(02) 4933 0296,
Australia,Zane Murtagh,96 Argyle Street,RAWDON VALE,NSW,2422,(02) 4937 1298,
Australia,Michael Garvin,57 Purcell Place,GLENUGIE,NSW,2460,(02) 6704 3715,
Australia,Thomas Lake,16 Link Road,LIETINNA,TAS,7260,(03) 6273 6881,
Australia,Jamie Sadler,23 Martens Place,LAMB ISLAND,QLD,4184,(07) 3410 9937,
Australia,Oliver Fenbury,88 Romawi Road,FORGE CREEK,VIC,3875,(03) 5375 0602,
Australia,Ryder Langford,12 Round Drive,BOORAGUL,NSW,2284,(02) 4917 5559,
Australia,Mason Dalrymple,27 Shell Road,GHERANG,VIC,3240,(03) 5345 4942,
Australia,Lincoln Prowse,35 Gloucester Avenue,CROYDON PARK SOUTH,SA,5008,(08) 8365 3668,
Australia,Declan Lavater,6 Dalgarno Street,THE SCRUB,NSW,2372,(02) 6714 8175,
Australia,Ali McVey,88 Wynyard Street,WYANGLE,NSW,2720,(02) 6144 1316,
Australia,Seth Romano,14 Isaac Road,LAKE ST CLAIR,TAS,7140,(03) 6272 2833,
Australia,Nathan Abbott,21 Henley Beach Road,MOUNT LOFTY,SA,5152,(08) 8208 2681,
Australia,Brayden Porteous,4 Cunningham Street,WESTGROVE,QLD,4454,(07) 4583 7631,
Australia,Sean Lake,25 Seninis Road,MOUNT KELLY,QLD,4807,(07) 4032 2870,
Australia,Hamish Dunhill,60 McKillop Street,CROWLANDS,VIC,3377,(03) 5350 9382,
Australia,Taj Goddard,68 Sunnyside Road,WOOLPUNDA,SA,5330,(08) 8782 1376,
Australia,Jamie Langford,55 Punchs Creek Road,PIKEDALE,QLD,4380,(07) 4591 0224,
Australia,Charlie McCarthy,68 Faulkner Street,WONGWIBINDA,NSW,2350,(02) 6783 1433,
Australia,Henry Tuckson,7 Foreshore Road,HAZELMERE,WA,6055,(08) 8345 8441,
Australia,Andrew De Gillern,75 Shaw Drive,BEALIBA,VIC,3475,(03) 5315 9558,
Australia,Rory Tewksbury,12 Carnegie Avenue,HICKETY,WA,6532,(08) 9023 6211,
Australia,Rory Fleming,78 Sale-Heyfield Road,MOYARRA,VIC,3951,(03) 5340 2621,
Australia,Oscar Lea,28 Manchester Road,BOWMAN,NSW,2422,(02) 4980 0392,
Australia,Flynn Arundale,23 McLeans Road,MOONFORD,QLD,4630,(07) 3892 4011,
Australia,Angus Anna,45 Barker Street,MOUNT BARKER,WA,6324,(08) 9009 6365,
Australia,Aaron Girdlestone,32 Mackie Street,LAKE CONJOLA,NSW,2539,(02) 4037 5739,
Australia,Zac Hobbs,3 Shaw Drive,GOLDEN POINT,VIC,3465,(03) 5324 4299,
Australia,Caleb Jewell,71 Goebels Road,EAST HALDON,QLD,4343,(07) 4560 9990,
Australia,Jack Annois,32 Thone Street,BOORGANNA,NSW,2429,(02) 4986 8018,
Australia,Toby Findlay,16 Little Myers Street,MAUDE,VIC,3331,(03) 5360 6702,
Australia,Aidan Richard,51 Spring Creek Road,NARRACAN,VIC,3824,(03) 5333 0184,
Australia,Brodie Maurice,8 Boughtman Street,MOUNTAIN GATE,VIC,3156,(03) 9701 5395,
Australia,Beau Longstaff,92 Pelican Road,NORTH HOBART,TAS,7000,(03) 6208 0274,
Australia,Charles Farncomb,77 Albert Street,VERESDALE SCRUB,QLD,4285,(07) 5658 2835,
Australia,Noah Cummins,43 Capper Street,WETHERON,QLD,4625,(07) 3405 3893,
Australia,Toby Hebblethwaite,98 Clifton Street,KIRWANS BRIDGE,VIC,3608,(03) 5388 4906,
Australia,Lincoln Tritton,34 Gaggin Street,METFORD DC,NSW,2323,(02) 4926 8677,
Australia,George Annand,37 Cofton Close,MOONPAR,NSW,2453,(02) 6731 1599,
Australia,John Montague,92 Crofts Road,CLUB TERRACE,VIC,3889,(03) 5385 2094,
Australia,Darcy Lefroy,96 Myrtle Street,BUNDALONG,VIC,3730,(03) 5361 9489,
Australia,Sean McCubbin,12 McGregor Street,LORD HOWE ISLAND,NSW,2898,(02) 6222 3041,
Australia,Lincoln Dodd,8 Healy Road,HESTER,WA,6255,(08) 9090 4357,
Australia,Daniel Gilles,6 Aquatic Road,MITCHELLS ISLAND,NSW,2430,(02) 4937 3334,
Australia,Bailey Heaton,48 Argyle Street,WAPRA,NSW,2422,(02) 4979 4810,
Australia,Andrew Longstaff,32 Auricht Road,NORA CREINA,SA,5276,(08) 8773 5953,
Australia,Jonathan Harrhy,21 Horsington Street,RINGWOOD NORTH,VIC,3134,(03) 9827 5481,
Australia,Riley Lamb,85 Peterho Boulevard,WARD BELT,SA,5118,(08) 8317 1196,
Australia,Sebastian McCabe,97 Carlisle Street,CLONBINANE,VIC,3658,(03) 5388 3257,
Australia,Brodie Cadman,66 Horsington Street,CAMBERWELL NORTH,VIC,3124,(03) 8221 3074,
Australia,Jesse Hingston,52 Lapko Road,MILLS LAKE,WA,6336,(08) 9087 7687,
Australia,Thomas McCarthy,84 Queen Street,WARRINGAH MALL,NSW,2100,(02) 9660 2705,
Australia,Luca Button,75 Beach Street,GOLCONDA,TAS,7254,(03) 6226 3134,
Australia,Jeremy Soubeiran,82 Aquatic Road,MANNING POINT,NSW,2430,(02) 4977 7987,
Australia,Toby McKinnon,80 Ferny Avenue,QUNABA,QLD,4670,(07) 3444 8648,
Australia,Mitchell Rankin,24 Glen William Road,EAST TRINITY,QLD,4871,(07) 4051 3709,
Australia,Logan Hannell,11 Rockhampton Qld,MORINISH,QLD,4702,(07) 4942 3178,
Australia,Andrew Moses,2 Plug Street,NEW VALLEY,NSW,2365,(02) 6793 6651,
Australia,Oliver Eager,95 Old Tenterfield Road,WHIPORIE,NSW,2469,(02) 6791 6435,
Australia,Henry Roemer,42 Shamrock Avenue,DEUA,NSW,2537,(02) 4087 7573,
Australia,Jeremy Brodzky,44 Faulkner Street,THALGARRAH,NSW,2350,(02) 6782 8240,
Australia,Jackson Bolden,58 Alfred Street,LAVERTON,WA,6440,(08) 9060 1861,
Australia,Liam La Trobe,25 Masthead Drive,EURIMBULA,QLD,4677,(07) 4994 3925,
Australia,Edward Fabro,95 Thule Drive,HANSBOROUGH,SA,5374,(08) 8322 8399,
Australia,Ethan Wheller,15 Treasure Island Avenue,BURLEIGH HEADS,QLD,4220,(07) 5636 2219,
Australia,Sebastian Kirton,87 Cunningham Street,TEELBA,QLD,4423,(07) 4513 6218,
Australia,Zane Clarkson,10 Main Street,KALYAN,SA,5308,(08) 8238 9099,
Australia,Lincoln McConnel,27 Black Point Drive,KAPINNIE,SA,5632,(08) 8732 6885,
Australia,Jackson Bauer,29 Isaac Road,NATIONAL PARK,TAS,7140,(03) 6259 6258,
Australia,Ethan Loxton,71 Railway Avenue,KYABRAM,VIC,3620,(03) 5375 4178,
Australia,Aaron Pedley,44 Marlin Avenue,GOOD HOPE,NSW,2582,(02) 6135 4408,
Australia,Jack Preece,11 Sale Street,CULLYA,NSW,2800,(02) 4066 9112,
Australia,Spencer Downer,10 Brown Street,CROWS NEST,NSW,2065,(02) 9436 7117,
Australia,Ethan Proby,90 Thomas Lane,RESERVOIR NORTH,VIC,3073,(03) 9956 9250,
Australia,David Hampden,68 Seaview Court,BURTON,QLD,4742,(07) 4996 5452,
Australia,Michael Neumayer,35 Monteagle Road,ARANDA,ACT,2614,(02) 6153 7298,
Australia,Cameron McClemens,6 Woerdens Road,SAWYERS GULLY,NSW,2326,(02) 4956 3479,
Australia,John Bardolph,64 Bette McNee Street,SHARPS CREEK,NSW,2729,(02) 6116 2112,
Australia,Owen Coburn,84 Ridge Road,CHERWELL,QLD,4660,(07) 3783 5971,
Australia,Jeremy Frewin,72 Kogil Street,YARRAMAN,NSW,2400,(02) 6797 1878,
Australia,Jasper Dunbabin,87 English Street,HAY VALLEY,SA,5252,(08) 8231 9124,
Australia,Sam Barff,3 Main Street,MAGGEA,SA,5308,(08) 8264 5819,
Australia,Seth Landsborough,37 Feather Street,YUGAR,QLD,4520,(07) 3500 3617,
Australia,Luke O'Flaherty,31 Auricht Road,TILLEY SWAMP,SA,5275,(08) 8771 4206,
Australia,Christopher Alderman,36 Weigall Avenue,WHYTE YARCOWIE,SA,5420,(08) 8729 9722,
Australia,Archer Goll,28 Creek Street,WERANGA,QLD,4405,(07) 4563 3021,
Australia,Jaxon Rix,69 Bapaume Road,WOOLMER,QLD,4352,(07) 4532 9623,
Australia,Jacob Wentcher,11 Seiferts Rd,WEERRIBA,QLD,4703,(07) 4930 2192,
Australia,Mason Farnell,90 Moores Drive,PIMBA,SA,5720,(08) 8712 0358,
Australia,Jake Matheson,49 Goldfields Road,BIRNAM,QLD,4352,(07) 4553 7961,
Australia,Tristan Northfield,85 Thule Drive,FRANKTON,SA,5374,(08) 8373 1664,
Australia,Jordan Hamilton,38 Armstrong Street,MACORNA NORTH,VIC,3568,(03) 5374 2068,
Australia,Charles Gardiner,14 Oak Street,TATHAM,NSW,2471,(02) 6778 2807,
Australia,Toby Collits,71 Walder Crescent,JARDINE,QLD,4702,(07) 4945 3409,
Australia,Levi Dodds,38 Ageston Road,RADFORD,QLD,4307,(07) 4587 0295,
Australia,Nicholas Gosman,51 Bungana Drive,EMU FLAT,SA,5453,(08) 8383 9595,
Australia,Hunter Arek,73 Sinclair Street,COLLINSFIELD,SA,5555,(08) 8355 2753,
Australia,Justin Koch,61 Wigley Street,PASADENA,SA,5042,(08) 8225 4301,
Australia,Finn Ievers,88 Junction St,WARRAGOON,NSW,2710,(02) 6107 8307,
Australia,Spencer Sullivan,96 Martens Place,COOCHIEMUDLO ISLAND,QLD,4184,(07) 3883 2905,
Australia,Lucas Blackmore,74 Wright Street,NOOSAVILLE DC,QLD,4566,(07) 5331 9848,
Australia,Darcy Butler,65 Insignia Way,BINDULI,WA,6430,(08) 9017 7603,
Australia,John Gratton,85 Correa Place,JINGILI,NT,810,(08) 8967 5488,
Australia,Mason Hooke,79 Larissa Court,MILDURA WEST,VIC,3500,(03) 5315 6293,
Australia,Joshua Kennion,92 Shell Road,BUCKLEY,VIC,3240,(03) 5331 4993,
Australia,Jayden McConachy,68 Flax Court,BETHANGA,VIC,3691,(03) 5333 6298,
Australia,Timothy Jarvis,31 Gilbert Street,CALDER,TAS,7325,(03) 6224 4405,
Australia,Jake Davey,88 Yangan Drive,LIMBRI,NSW,2352,(02) 6768 8543,
Australia,Cameron Headlam,31 Faunce Crescent,MURRIN BRIDGE,NSW,2672,(02) 6174 4712,
Australia,Will Clare,58 Seninis Road,MOUNT STUART,QLD,4811,(07) 4073 5106,
Australia,Cameron Radford,33 Marloo Street,NEWTON,SA,5074,(08) 8264 4467,
Australia,Jacob Cheyne,94 Stanley Drive,DINGO BEACH,QLD,4800,(07) 4938 2485,
Australia,Lincoln Tardent,46 Creegans Road,THE RISK,NSW,2474,(02) 6765 1397,
Australia,Riley Sharman,29 Banksia Street,KONDUT,WA,6605,(08) 9076 2452,
Australia,Andrew Norton,8 Masthead Drive,RAGLAN,QLD,4697,(07) 4923 7768,
Australia,Lucas Morres,26 Rimbanda Road,STANNUM,NSW,2371,(02) 6781 0796,
Australia,Jaxon Fryett,25 Porana Place,COOLADAR HILL,WA,6638,(08) 9096 8881,
Australia,Matthew Weatherburn,70 Seninis Road,CLARE,QLD,4807,(07) 4029 1745,
Australia,Jett Geddes,35 William Road,NUMBULWAR,NT,852,(08) 8968 7600,
Australia,Jesse Higinbotham,26 Boulter Close,GOONDI,QLD,4860,(07) 4012 6062,
Australia,Archie Lapsley,54 High Street,BRENTWOOD,SA,5575,(08) 8360 8508,
Australia,Nathan Stratton,27 Spencer Street,GOOMERIBONG,QLD,4601,(07) 5382 5989,
Australia,Dominic Fanning,82 Albacore Crescent,WELBY,NSW,2575,(02) 4637 3057,
Australia,Benjamin Gale,58 Walder Crescent,CANOONA,QLD,4702,(07) 4934 2400,
Australia,Ryder Ley,13 McKillop Street,BORNES HILL,VIC,3379,(03) 5386 4831,
Australia,Matthew Beaney,75 Quintin Street,DONNYBROOK,QLD,4510,(07) 3723 0904,
Australia,Isaac Galleghan,85 Holdsworth Street,WAREEMBA,NSW,2046,(02) 9882 8618,
Australia,Aidan Sheridan,76 Ocean Pde,HOMESTEAD,QLD,4816,(07) 4047 0223,
Australia,Lachlan Tanner,1 Todd Street,EAST BOWES,WA,6535,(08) 9062 7491,
Australia,Daniel Ngabidj,32 Arthur Street,MOOKERAWA,NSW,2820,(02) 4026 9223,
Australia,Sebastian Julius,78 Railway Street,PUNCHS CREEK,QLD,4357,(07) 4525 8570,
Australia,Henry Dowse,79 Sunraysia Road,CLARENDON,VIC,3352,(03) 5380 2432,
Australia,Jaxon Reymond,75 Loris Way,GUNDARING,WA,6315,(08) 9056 1826,
Australia,Alex Upfield,24 Learmouth Street,BOLWARRA,VIC,3305,(03) 5374 5441,
Australia,Brodie Ashcroft,64 Zipfs Road,ONE MILE,QLD,4305,(07) 4536 7345,
Australia,Henry Benstead,77 Masthead Drive,ROCKHAMPTON DC,QLD,4701,(07) 4952 6683,
